"business_name","business_name_arabic","registration_category_name","license_type_name","license_issuing_authority_name","license_number","fax","phone","website","address_line1","address_line2","street","area","city_name","country_name","emirate_name","p_o_box"
"Leopards Worldwide Express LLC","ليوباردز وورلد وايد اكسبريس ش.ذ.م.م","Dubai based companies","Commercial","","","","","","","","","","","","",""
"ARMAN EXPRESS (BRANCH OF GATEWAY LINE LLC)","","Dubai based companies","Commercial","","","","","","","","","","","","",""
"BLUE BIRD EXPRESS COURIER & CARGO SERVICES LLC","بلوبيرد اكسبريس كورير اند كارجو سرفيسيس ش ذ م م","Dubai based companies","Commercial","","","","","","OFFICE # 12 IBRAHIM SAEED AHMED LOOTAH UM RAMOOL","UMRAMOOL DUBAI","","","Dubai","United Arab Emirates","DUBAI","35549"
"KARA EXPRESS COURIER AND CARGO","","Dubai based companies","Commercial","","","","","","","","","","","","",""
"SCHENKER LLC","","Dubai based companies","Commercial","","","","","","ALMASAOOD TOWER","AIRPORT ROAD","","","Dubai","United Arab Emirates","DUBAI","62532"
"HAWK FREIGHT SERVICES LLC","","Dubai based companies","Commercial","","","","","","W28 DUBAI AIRPORT FREEZONE","NEXT TO TERMINAL 2 AIRPORT","","AL TWAR","Dubai","United Arab Emirates","DUBAI","54438"
"AL MATEEN EXPRESS","","Dubai based companies","Commercial","","","","","","AL MUTANA STREET","MANSOUR AHMED FAQIHI & SON","","","Dubai","United Arab Emirates","DUBAI","15491"
"ZAJEL COURIER  SERVICES","","Dubai based companies","Commercial","","","","","","DUBAI","DUBAI","","","Dubai","United Arab Emirates","DUBAI","97190"
"ZAJEL COURIER  SERVICES","","Dubai based companies","Commercial","","","","","","DUBAI","DUBAI","","","Dubai","United Arab Emirates","DUBAI","97190"
"UNITED EMIRATES AGENCIES CO ( DUBAI BRANCH)","","Dubai based companies","Commercial","","","","","","","","","","","","",""
"MYCO SHIPPING & CLEARING","","Dubai based companies","Commercial","","","","","","","","","","","","",""
"UPS GULF LLC (DUBAI BRANCH)","","Dubai based companies","Commercial","","","","","","","","","","","","",""
"SMSA EXPRESS TRANPORTATION LLC","","Dubai based companies","Commercial","","725116","971-4-2351166","971-4-6069005","","dxb","dxb","","","Dubai","United Arab Emirates","DUBAI","36670"
"United Parcel Service (UAE)LLC","","Dubai based companies","Commercial","","","","","","OFFICE NO E10","DAFZA","","","Dubai","United Arab Emirates","DUBAI","26026"
"PRIME EXPRESS INTERNATIONAL COURIERS (L.L.C.)","","Dubai based companies","Commercial","","","","","","AS2002/102 BRIDGE OFFICE,  EMC","FREIGHT GATE, DUBAI CARGO VILLAGE","","","Dubai","United Arab Emirates","DUBAI","62025"
"Indian Courier Service Intl.L.L.C","","Dubai based companies","Commercial","","","","","","#15, Raymond Show Room Bldg","Ayal Nasr , Deira","","","Dubai","United Arab Emirates","Not Available","57745"
"Breeze Transport LLC","","Dubai based companies","Commercial","","","","","http://www.breezetransport.com","International City, France Cluster, P23, off 03","Warsan","","","Dubai","United Arab Emirates","DUBAI","116586"
"SINOTRANS GULF SHIPPING LLC","","Dubai based companies","Commercial","","","","","","","","","","","","",""
"GULF WORLDWIDE EXPRESS -COURIER","","Dubai based companies","Commercial","","","","","","DUBAI","DUBAI","","","Dubai","United Arab Emirates","DUBAI","8523"
"COMPEX INTERNATIONAL LOGISTICS LLC","","Dubai based companies","Commercial","","","","","","P.O.BOX 238238 DUBAI U.A.E","P.O.BOX 238238 DUBAI U.A.E","","","Dubai","United Arab Emirates","DUBAI","238238"
"SMART MAIL SERVICE LLC","","Dubai based companies","Commercial","","","","","","","","","","","","",""
"MASS ALLIED FREIGHTERS L.L.C","","Dubai based companies","Commercial","","","","","","Grosvenor Business Towers","Office No. 1506","Barsha Heights","TECOM","Dubai","United Arab Emirates","DUBAI","6641"
"Aramex Emirates LLC","","Dubai based companies","Commercial","","","","","","","","","","","","",""
"RONA CARGO","","Emirates based companies","Commercial","","","","","www.ronacargo.com","Rolla square","sharjah","","","Sharjah","United Arab Emirates","SHARJAH","20579"
"P D E EXPRESS SHIPPING SERVICES L.L.C","","Dubai based companies","Commercial","","","","","","","","","","","","",""
"D T D C EUROSTAR COURIER & CARGO LLC","","Dubai based companies","Commercial","","","","","","","","","","","","",""
"TCS EXPRESS WORLD WIDE LLC","","Dubai based companies","Commercial","","","","","","UMM RAMOOL","RASHIDIYA","","","Dubai","United Arab Emirates","Not Available","29575"
"First Flight Couriers (Middle East) (L.L.C)","","Dubai based companies","Commercial","","","","","http://www.firstfllightme.com","","","","","","","",""
"KMK EXPRESS CARGO COURIER AND LOGISTIC LLC BR.","","Dubai based companies","Commercial","","","","","","971-4-2828303","971-4-2828303","","","Dubai","United Arab Emirates","DUBAI","128228"
"COMPEX INTERNATIONAL CARGO LLC","","Dubai based companies","Commercial","","","","","www.compexlogistics.com","AL QUSAIS 1","DAMASCUS STREET","","","Dubai","United Arab Emirates","DUBAI","238238"
"MRC SHIPPING & LOGISTICS L.L.C","","Dubai based companies","Commercial","","","","","","KARAMA","BURDUBAI","","","Dubai","United Arab Emirates","DUBAI","118046"
"MRC SHIPPING & LOGISTICS L.L.C","","Dubai based companies","Commercial","","","","","","KARAMA","BURDUBAI","","","Dubai","United Arab Emirates","DUBAI","118046"
"ELITE AIRBORNE EXPRESS (L.L.C.)","","Dubai based companies","Commercial","","","","","","AL QUASIS INDUSTRIAL AREA","AL QUASIS","","","Dubai","United Arab Emirates","DUBAI","111043"
"HST LOGISTICS LLC","","Dubai based companies","Commercial","","","","","","","","","","","","",""
"KUEHNE+NAGEL L.L.C","","Dubai based companies","Commercial","","","","","","UAE ENTERPRSIES,DIERA ,PORT SAEED","DUBAI","","","Dubai","United Arab Emirates","DUBAI","22577"
"CONTINENTAL COURIER SERVICES LLC","","Dubai based companies","Commercial","","","","","","UMM RAMOOL","NEAR MAX GARAGE","","","Dubai","United Arab Emirates","Not Available","34311"
"TCS EXPRESS WORLD WIDE LLC","","Dubai based companies","Commercial","","","","","","","","","","","","",""
"Modernline Distribution LLC","","Dubai based companies","Commercial","","","","","","","","","","","","",""
"RAJAB CARGO SERVICES LLC","","Dubai based companies","Commercial","","","","","","","","","","","","",""
"319 EXPRESS CARGO SERVICES L.L.C","","Dubai based companies","Commercial","","","","","http://319express.com","","","","","","","",""
"Universal Express LLC","","Dubai based companies","Commercial","","","","","","","","","","","","",""
"DHL WORLDWIDE EXPRESS","","Dubai based companies","Commercial","","","","","","AL TOWAR","TERMINAL 2","","","Dubai","United Arab Emirates","Not Available","6252"
"S.T.COURIER L.L.C","","Dubai based companies","Commercial","","","","","","DEIRA","DUBAI","","","Dubai","United Arab Emirates","DUBAI","46446"
"Nice Al Marri Express Services","","Dubai based companies","Commercial","","","","","","","","","","","","",""
"Gulf Worldwide express","","Dubai based companies","Commercial","","","","","","","","","","","","",""
"SKYEXPRESS INTERNATIONAL LLC","","Dubai based companies","Commercial","","","","","","","","","","","","",""
"ROAD RUNNERS TRANSIT L.L.C","","Dubai based companies","Commercial","","516147","971-4-3389072","971-4-3389071","","AL QUOZ INDUSTRIAL AREA","DUBAI","","","Dubai","United Arab Emirates","DUBAI","30258"
"Meridian Express Logistics LLC","","Dubai based companies","Commercial","","","","","","Habtoor WH Complex, Al Qsais, Deira","Dubai","","","Dubai","United Arab Emirates","Not Available","33946"
"LBC EXPRESS INC (DUBAI BR)","","Dubai based companies","Commercial","","","","","","BUR DUBAI","DUBAI","","","Dubai","United Arab Emirates","Not Available","118742"
"Mohammed Al Katheeri Cargo (Dubai Branch)","","Dubai based companies","Commercial","","","","","","","","","","","","",""
"DTDC COURIER AND CARGO LIMITED LLC","","Dubai based companies","Commercial","","","","","","DUBAI","UAE","","","Dubai","United Arab Emirates","Not Available","118519"
"pantos express llc","","Dubai based companies","Commercial","","","","","","near iranian school","al karama","","","Dubai","United Arab Emirates","Not Available","121473"
"EMSTAR LOGISTICS L.L.C","","Dubai based companies","Commercial","","","","","","","","","","","","",""
"Parzel Express & Logistics LLC","","Dubai based companies","Commercial","","","","","www.parzel.com","Warehouse 5","Al Qusias Industrial Area 4","","","Dubai","United Arab Emirates","DUBAI","3781"
"TNT(UAE)LLC","","Dubai based companies","Commercial","","","","","","","","","","","","",""
"Airlink International UAE","","Dubai based companies","Commercial","","","","","","P.O.BOX 10466","Dubai","","","Dubai","United Arab Emirates","DUBAI","10466"
"EMIRATES EXPRESS","","Dubai based companies","Commercial","","","","","","DUBAI","DUBAI","","","Dubai","United Arab Emirates","DUBAI","5692"
"FEDEX EXPRESS INTERNATIONAL BV (DUBAI BRANCH)","","Dubai based companies","Commercial","","","","","","","","","","","","",""
"MEXX GLOBAL LOGISTICS L.L.C","","Dubai based companies","Commercial","","","","","","","","","","","","",""
"EMPOST CARGO AND LOGISTICS","","Dubai based companies","Commercial","","","","","","D4","AIRPORT","","","Dubai","United Arab Emirates","Not Available","32200"
"DPD UAE LLC","","Dubai based companies","Commercial","","","","","","BASE_MENT W/H NO: 32","ALQUOZ 3","","","Dubai","United Arab Emirates","Not Available","290"
"UNITED EXPRESS CUSTOMS BROKER L.L.C","","Dubai based companies","Commercial","","","","","","","","","","","","",""
"METRO COURIER SERVICES LLC","","Emirates based companies","Commercial","","","","","","Shop no 4","New Ind Area","","","Ajman","United Arab Emirates","AJMAN","5950355"
"NAQEL L.L.C","","Dubai based companies","Commercial","","","","","","","","","","","","",""
"NTL EXPRESS L.L.C","","Dubai based companies","Commercial","","","","","","","","","","","","",""
"TFM SHIPPING LLC","","Dubai based companies","Commercial","","","","","www.tfmex.com","dubai","dubai","","","Dubai","United Arab Emirates","DUBAI","123"
"RSA NATIONAL DOCUMENTS DELIVERY L.L.C","","Dubai based companies","Commercial","","","","","","","","","","","","",""
"Emirates Skycargo Ecommerce","Emirates Skycargo Ecommerce","Dubai based companies","Commercial","","","","","","Emirates Group Headquarters","Airport Road","","Garhoud","Dubai","United Arab Emirates","DUBAI","686"
"RAAD EXPRESS DELIVERY SERVICES (BR OF SHAIKH ABDULLA BIN ZAYED SAQR ALNAHYAN INVESTENT LLC)","","Dubai based companies","Commercial","","796498","971-4-2225261","971-4-2225060","","DEIRA, AL KHUBAISIE BLDG, BLDG # 52A RIGGA ROAD","FLAT 101-106","","","Dubai","United Arab Emirates","DUBAI","60315"
"A P S MIDDLE EAST LOGISTICS LLC","","Dubai based companies","Commercial","","","","","","DUBAI","DUBAI","","","Dubai","United Arab Emirates","DUBAI","116653"
"BRIDGEWAY SHIPPING & CLEARING SERVICES (LLC)","","Dubai based companies","Commercial","","","","","","AL GARHOUD","DUBAI","","","Dubai","United Arab Emirates","DUBAI","50066"
"SHIPA DELIVERY SERVICES L L C","شيبا لخدمات التوصيل ش ذ م م","Dubai based companies","Commercial","","","","","","","","","","","","",""
"IMMEDIATE COURIER EXPRESS LLC","","Dubai based companies","Commercial","","","","","","","","","","","","",""
"F T E COURIER SERVICES L.L.C","","Dubai based companies","Commercial","","","","","","","","","","","","",""
"SAFE WAY EXPRESS CARGO L.L.C","","Dubai based companies","Commercial","","","","","","","","","","","","",""
"CENTURY EXPRESS COURIER SERVICES L.L.C","","Dubai based companies","Commercial","","","","","http://WWW.CENTURYEXPRESS.ME","","","","","","","",""
"C S E EXPRESS CARGO L.L.C","","Dubai based companies","Commercial","","","","","","","","","","","","",""
"THE PROFESSIONAL COURIERS L.L.C","","Dubai based companies","Commercial","","","","","","","","","","","","",""
